GLOBALSTAR M094         
1 39074U 13005C   25276.50048519 -.00000105  00000+0 -59717-5 0  9997
2 39074  51.9951 212.3342 0000697  85.3153 274.7793 12.62270171586051
GLOBALSTAR M096         
1 39075U 13005D   25277.62226926 -.00000101  00000+0  14424-4 0  9992
2 39075  52.0063 257.5196 0000574  89.7509 270.3423 12.62267363585110
GLOBALSTAR M078         
1 39076U 13005E   25277.51709632 -.00000021  00000+0  46320-3 0  9991
2 39076  51.9895 342.2047 0001294  76.3158 283.7852 12.62259595583728
GLOBALSTAR M095         
1 39077U 13005F   25277.46390369 -.00000071  00000+0  18431-3 0  9996
2 39077  52.0103 339.6066 0000965 103.3702 256.7272 12.62260354583578
GLOBALSTAR M087         
1 52888U 22064A   25277.87329659 -.00000070  00000+0  18765-3 0  9994
2 52888  51.9974 119.7447 0001017  92.8680 267.2303 12.62289209158898
